GLOBALSTAR M094 [+]     
1 39074U 13005C   24089.71682319 -.00000109  00000+0 -28888-4 0  9991
2 39074  51.9941  95.3965 0000432  58.9725 301.1184 12.62264182516246
GLOBALSTAR M096 [+]     
1 39075U 13005D   24090.44257243 -.00000087  00000+0  94980-4 0  9998
2 39075  52.0060 141.3566 0000379  61.4130 298.6775 12.62264096515608
GLOBALSTAR M078 [+]     
1 39076U 13005E   24089.78326368 -.00000074  00000+0  16763-3 0  9997
2 39076  51.9859 228.4801 0000368 258.8431 101.2394 12.62261741513794
GLOBALSTAR M095 [+]     
1 39077U 13005F   24090.52166622 -.00000080  00000+0  13117-3 0  9994
2 39077  51.9788 223.6439 0000284  30.5683 329.5200 12.62276400514106
GLOBALSTAR M087 [+]     
1 52888U 22064A   24090.12664655 -.00000089  00000+0  75225-4 0  9997
2 52888  51.9743 124.0607 0009629 161.7855 198.3392 13.37568946 86945
